$$SOE
2459580.500000000, A.D. 2022-Jan-01 00:00:00.0000, -2.821301197645313E+08, 2.209925979303545E+08, 9.257788601328343E+06,
2459587.500000000, A.D. 2022-Jan-08 00:00:00.0000, -2.875777788271839E+08, 2.112875476550024E+08, 1.041312229972608E+07,
2459594.500000000, A.D. 2022-Jan-15 00:00:00.0000, -2.927186673008294E+08, 2.013571062638997E+08, 1.155734479435709E+07,
2459601.500000000, A.D. 2022-Jan-22 00:00:00.0000, -2.975432496703677E+08, 1.912090846183256E+08, 1.268907508308686E+07,
2459608.500000000, A.D. 2022-Jan-29 00:00:00.0000, -3.020420295068913E+08, 1.808517030594968E+08, 1.380690729022276E+07,
2459615.500000000, A.D. 2022-Feb-05 00:00:00.0000, -3.062055648596669E+08, 1.702936060166147E+08, 1.490941089912316E+07,
2459622.500000000, A.D. 2022-Feb-12 00:00:00.0000, -3.100244829598309E+08, 1.595438757649923E+08, 1.599513081724823E+07,
2459629.500000000, A.D. 2022-Feb-19 00:00:00.0000, -3.134894956507310E+08, 1.486120476169111E+08, 1.706258760284123E+07,
2459636.500000000, A.D. 2022-Feb-26 00:00:00.0000, -3.165914169621139E+08, 1.375081257260572E+08, 1.811027792875045E+07,
2459643.500000000, A.D. 2022-Mar-05 00:00:00.0000, -3.193211827794884E+08, 1.262425987844472E+08, 1.913667523372470E+07,
2459650.500000000, A.D. 2022-Mar-12 00:00:00.0000, -3.216698724976253E+08, 1.148264554288009E+08, 2.014023055203675E+07,
2459657.500000000, A.D. 2022-Mar-19 00:00:00.0000, -3.236287326966660E+08, 1.032711992514559E+08, 2.111937353505267E+07,
2459664.500000000, A.D. 2022-Mar-26 00:00:00.0000, -3.251892029251572E+08, 9.158886325874344E+07, 2.207251368154220E+07,
2459671.500000000, A.D. 2022-Apr-02 00:00:00.0000, -3.263429436249789E+08, 7.979202355022156E+07, 2.299804178682991E+07,
2459678.500000000, A.D. 2022-Apr-09 00:00:00.0000, -3.270818660225104E+08, 6.789381203253633E+07, 2.389433160842348E+07,
2459685.500000000, A.D. 2022-Apr-16 00:00:00.0000, -3.273981637152677E+08, 5.590792860912381E+07, 2.475974179183537E+07,
2459692.500000000, A.D. 2022-Apr-23 00:00:00.0000, -3.272843472967544E+08, 4.384865369269852E+07, 2.559261828496679E+07,
2459699.500000000, A.D. 2022-Apr-30 00:00:00.0000, -3.267332839523665E+08, 3.173085853266621E+07, 2.639129725277684E+07,
2459706.500000000, A.D. 2022-May-07 00:00:00.0000, -3.257382390104486E+08, 1.957001109993949E+07, 2.715410807425281E+07,
2459713.500000000, A.D. 2022-May-14 00:00:00.0000, -3.242929180741284E+08, 7.382180259960786E+06, 2.787937656633009E+07,
2459720.500000000, A.D. 2022-May-21 00:00:00.0000, -3.223915117491935E+08, -4.815961346956499E+06, 2.856542870524591E+07,
2459727.500000000, A.D. 2022-May-28 00:00:00.0000, -3.200287434095211E+08, -1.700713704305389E+07, 2.921059483214225E+07,
2459734.500000000, A.D. 2022-Jun-04 00:00:00.0000, -3.171999196527433E+08, -2.917346916493142E+07, 2.981321431238947E+07,
2459741.500000000, A.D. 2022-Jun-11 00:00:00.0000, -3.139009831849132E+08, -4.129648582977452E+07, 3.037164065379970E+07,
2459748.500000000, A.D. 2022-Jun-18 00:00:00.0000, -3.101285679285319E+08, -5.335713182339422E+07, 3.088424709627255E+07,
2459755.500000000, A.D. 2022-Jun-25 00:00:00.0000, -3.058800561036131E+08, -6.533578407765331E+07, 3.134943267856530E+07,
2459762.500000000, A.D. 2022-Jul-02 00:00:00.0000, -3.011536368672944E+08, -7.721227224488106E+07, 3.176562877093848E+07,
2459769.500000000, A.D. 2022-Jul-09 00:00:00.0000, -2.959483657754884E+08, -8.896590463448934E+07, 3.213130605308876E+07,
2459776.500000000, A.D. 2022-Jul-16 00:00:00.0000, -2.902642247033928E+08, -1.005754988632753E+08, 3.244498202478374E+07,
2459783.500000000, A.D. 2022-Jul-23 00:00:00.0000, -2.841021839283215E+08, -1.120194175599373E+08, 3.270522924294411E+07,
2459790.500000000, A.D. 2022-Jul-30 00:00:00.0000, -2.774642657206718E+08, -1.232756128707865E+08, 3.291068398062361E+07,
2459797.500000000, A.D. 2022-Aug-06 00:00:00.0000, -2.703536051984448E+08, -1.343216794697161E+08, 3.306005499927878E+07,
2459804.500000000, A.D. 2022-Aug-13 00:00:00.0000, -2.627745085374861E+08, -1.451349136082960E+08, 3.315213269247678E+07,
2459811.500000000, A.D. 2022-Aug-20 00:00:00.0000, -2.547325092883929E+08, -1.556923789281848E+08, 3.318579864789693E+07,
2459818.500000000, A.D. 2022-Aug-27 00:00:00.0000, -2.462344218378603E+08, -1.659709799011565E+08, 3.316003549255474E+07,
2459825.500000000, A.D. 2022-Sep-03 00:00:00.0000, -2.372883908117040E+08, -1.759475430475131E+08, 3.307393690813377E+07,
2459832.500000000, A.D. 2022-Sep-10 00:00:00.0000, -2.279039353211724E+08, -1.855989058272999E+08, 3.292671771658134E+07,
2459839.500000000, A.D. 2022-Sep-17 00:00:00.0000, -2.180919869695312E+08, -1.949020129863818E+08, 3.271772392604975E+07,
2459846.500000000, A.D. 2022-Sep-24 00:00:00.0000, -2.078649204772047E+08, -2.038340200389960E+08, 3.244644260710946E+07,
2459853.500000000, A.D. 2022-Oct-01 00:00:00.0000, -1.972365755998891E+08, -2.123724033786934E+08, 3.211251144315705E+07,
2459860.500000000, A.D. 2022-Oct-08 00:00:00.0000, -1.862222688679397E+08, -2.204950757940145E+08, 3.171572781798518E+07,
2459867.500000000, A.D. 2022-Oct-15 00:00:00.0000, -1.748387950627764E+08, -2.281805053103174E+08, 3.125605747344267E+07,
2459874.500000000, A.D. 2022-Oct-22 00:00:00.0000, -1.631044196740299E+08, -2.354078379851373E+08, 3.073364264351410E+07,
2459881.500000000, A.D. 2022-Oct-29 00:00:00.0000, -1.510388590170359E+08, -2.421570260260030E+08, 3.014880906647094E+07,
2459888.500000000, A.D. 2022-Nov-05 00:00:00.0000, -1.386632452409209E+08, -2.484089571027602E+08, 2.950207175228532E+07,
2459895.500000000, A.D. 2022-Nov-12 00:00:00.0000, -1.260000777008202E+08, -2.541455820438763E+08, 2.879413963922693E+07,
2459902.500000000, A.D. 2022-Nov-19 00:00:00.0000, -1.130731611236473E+08, -2.593500401907921E+08, 2.802591898347189E+07,
2459909.500000000, A.D. 2022-Nov-26 00:00:00.0000, -9.990753023389280E+07, -2.640067810284744E+08, 2.719851529014263E+07,
2459916.500000000, A.D. 2022-Dec-03 00:00:00.0000, -8.652936084173657E+07, -2.681016802837884E+08, 2.631323365230186E+07,
2459923.500000000, A.D. 2022-Dec-10 00:00:00.0000, -7.296586778995720E+07, -2.716221486709725E+08, 2.537157740750003E+07,
2459930.500000000, A.D. 2022-Dec-17 00:00:00.0000, -5.924519047589096E+07, -2.745572315579495E+08, 2.437524505427219E+07,
2459937.500000000, A.D. 2022-Dec-24 00:00:00.0000, -4.539626687106691E+07, -2.768976979424826E+08, 2.332612539084055E+07,
2459944.500000000, A.D. 2022-Dec-31 00:00:00.0000, -3.144869697584552E+07, -2.786361170704083E+08, 2.222629085815132E+07,
2459951.500000000, A.D. 2023-Jan-07 00:00:00.0000, -1.743259711625944E+07, -2.797669203448152E+08, 2.107798919116361E+07,
2459958.500000000, A.D. 2023-Jan-14 00:00:00.0000, -3.378448786425080E+06, -2.802864468612887E+08, 1.988363366852494E+07,
2459965.500000000, A.D. 2023-Jan-21 00:00:00.0000, 1.068305541298404E+07, -2.801929748351129E+08, 1.864579186258504E+07,
2459972.500000000, A.D. 2023-Jan-28 00:00:00.0000, 2.472117037631813E+07, -2.794867385073454E+08, 1.736717267217965E+07,
2459979.500000000, A.D. 2023-Feb-04 00:00:00.0000, 3.870525931512234E+07, -2.781699272108061E+08, 1.605061206960015E+07,
2459986.500000000, A.D. 2023-Feb-11 00:00:00.0000, 5.260495287136673E+07, -2.762466668184233E+08, 1.469905789990997E+07,
2459993.500000000, A.D. 2023-Feb-18 00:00:00.0000, 6.639030435852475E+07, -2.737229847453052E+08, 1.331555387966983E+07,
2460000.500000000, A.D. 2023-Feb-25 00:00:00.0000, 8.003193938130540E+07, -2.706067593238335E+08, 1.190322298016569E+07,
2460007.500000000, A.D. 2023-Mar-04 00:00:00.0000, 9.350119806155296E+07, -2.669076544763253E+08, 1.046525041724631E+07,
2460014.500000000, A.D. 2023-Mar-11 00:00:00.0000, 1.067702682079586E+08, -2.626370408804038E+08, 9.004866476053044E+06,
2460021.500000000, A.D. 2023-Mar-18 00:00:00.0000, 1.198123080109648E+08, -2.578079050888586E+08, 7.525329389064163E+06,
2460028.500000000, A.D. 2023-Mar-25 00:00:00.0000, 1.326015572532357E+08, -2.524347482430620E+08, 6.029908463687181E+06,
2460035.500000000, A.D. 2023-Apr-01 00:00:00.0000, 1.451134365126844E+08, -2.465334757090737E+08, 4.521867657481819E+06,
2460042.500000000, A.D. 2023-Apr-08 00:00:00.0000, 1.573246330685326E+08, -2.401212782081693E+08, 3.004449942469075E+06,
2460049.500000000, A.D. 2023-Apr-15 00:00:00.0000, 1.692131707746040E+08, -2.332165073662595E+08, 1.480862743789166E+06,
2460056.500000000, A.D. 2023-Apr-22 00:00:00.0000, 1.807584655799060E+08, -2.258385505293404E+08, -4.573582651653886E+04,
2460063.500000000, A.D. 2023-Apr-29 00:00:00.0000, 1.919413695585514E+08, -2.180077043311363E+08, -1.572249896677837E+06,
2460070.500000000, A.D. 2023-May-06 00:00:00.0000, 2.027442020452454E+08, -2.097450468802028E+08, -3.095657531808764E+06,
2460077.500000000, A.D. 2023-May-13 00:00:00.0000, 2.131507674549679E+08, -2.010723109820907E+08, -4.613021125548258E+06,
2460084.500000000, A.D. 2023-May-20 00:00:00.0000, 2.231463607457967E+08, -1.920117602589700E+08, -6.121496516094089E+06,
2460091.500000000, A.D. 2023-May-27 00:00:00.0000, 2.327177615809164E+08, -1.825860694016367E+08, -7.618340838212229E+06,
2460098.500000000, A.D. 2023-Jun-03 00:00:00.0000, 2.418532182145891E+08, -1.728182095587840E+08, -9.100919127233267E+06,
2460105.500000000, A.D. 2023-Jun-10 00:00:00.0000, 2.505424221638299E+08, -1.627313397299967E+08, -1.056670971019684E+07,
2460112.500000000, A.D. 2023-Jun-17 00:00:00.0000, 2.587764748309499E+08, -1.523487048960426E+08, -1.201330844542807E+07,
2460119.500000000, A.D. 2023-Jun-24 00:00:00.0000, 2.665478474878084E+08, -1.416935413279114E+08, -1.343843189650285E+07,
2460126.500000000, A.D. 2023-Jul-01 00:00:00.0000, 2.738503359655977E+08, -1.307889885842816E+08, -1.483991946680682E+07,
2460133.500000000, A.D. 2023-Jul-08 00:00:00.0000, 2.806790094401201E+08, -1.196580075756067E+08, -1.621573435249367E+07,
2460140.500000000, A.D. 2023-Jul-15 00:00:00.0000, 2.870301530417762E+08, -1.083233075920186E+08, -1.756396351259355E+07,
2460147.500000000, A.D. 2023-Jul-22 00:00:00.0000, 2.929012087511072E+08, -9.680728327046400E+07, -1.888281715105554E+07,
$$EOE